[{"OBJECT_NAME":"SCS-01 J","OBJECT_ID":"2025-100J","EPOCH":"2026-03-09T22:31:25.904064","MEAN_MOTION":15.31338011,"ECCENTRICITY":0.00063909,"INCLINATION":97.3693,"RA_OF_ASC_NODE":145.4824,"ARG_OF_PERICENTER":272.025,"MEAN_ANOMALY":88.026,"EPHEMERIS_TYPE":0,"CLASSIFICATION_TYPE":"U","NORAD_CAT_ID":63990,"ELEMENT_SET_NO":999,"REV_AT_EPOCH":4563,"BSTAR":0.0011832888,"MEAN_MOTION_DOT":0.00035886,"MEAN_MOTION_DDOT":0},{"OBJECT_NAME":"STARLINK-35577","OBJECT_ID":"2025-265Y","EPOCH":"2026-03-09T22:48:51.433056","MEAN_MOTION":15.27579076,"ECCENTRICITY":5.161e-5,"INCLINATION":42.9964,"RA_OF_ASC_NODE":276.4329,"ARG_OF_PERICENTER":50.9158,"MEAN_ANOMALY":309.1739,"EPHEMERIS_TYPE":0,"CLASSIFICATION_TYPE":"U","NORAD_CAT_ID":66538,"ELEMENT_SET_NO":999,"REV_AT_EPOCH":1715,"BSTAR":0.00089421652,"MEAN_MOTION_DOT":0.00024426,"MEAN_MOTION_DDOT":0}]
